{
    "links": {
        "self": "http://www.neowsapp.com/rest/v1/neo/3989173?api_key=iIulBulltgU6a56xZRHN4H3l9WmuAYTsLGpBGhQ2"
    },
    "id": "3989173",
    "neo_reference_id": "3989173",
    "name": "(2020 BR7)",
    "designation": "2020 BR7",
    "nasa_jpl_url": "http://ssd.jpl.nasa.gov/sbdb.cgi?sstr=3989173",
    "absolute_magnitude_h": 20.846,
    "estimated_diameter": {
        "kilometers": {
            "estimated_diameter_min": 0.1800341848,
            "estimated_diameter_max": 0.4025686755
        },
        "meters": {
            "estimated_diameter_min": 180.0341848235,
            "estimated_diameter_max": 402.5686755391
        },
        "miles": {
            "estimated_diameter_min": 0.1118680215,
            "estimated_diameter_max": 0.2501445005
        },
        "feet": {
            "estimated_diameter_min": 590.6633549363,
            "estimated_diameter_max": 1320.7634134556
        }
    },
    "is_potentially_hazardous_asteroid": false,
    "close_approach_data": [
        {
            "close_approach_date": "2020-01-12",
            "close_approach_date_full": "2020-Jan-12 15:37",
            "epoch_date_close_approach": 1578843420000,
            "relative_velocity": {
                "kilometers_per_second": "30.9246752515",
                "kilometers_per_hour": "111328.8309053298",
                "miles_per_hour": "69175.4060700367"
            },
            "miss_distance": {
                "astronomical": "0.246056156",
                "lunar": "95.715844684",
                "kilometers": "36809476.83798772",
                "miles": "22872348.302241736"
            },
            "orbiting_body": "Earth"
        }
    ],
    "orbital_data": {
        "orbit_id": "5",
        "orbit_determination_date": "2020-02-01 05:47:55",
        "first_observation_date": "2020-01-23",
        "last_observation_date": "2020-02-01",
        "data_arc_in_days": 9,
        "observations_used": 43,
        "orbit_uncertainty": "9",
        "minimum_orbit_intersection": ".135897",
        "jupiter_tisserand_invariant": "3.687",
        "epoch_osculation": "2458874.5",
        "eccentricity": ".7324668714843267",
        "semi_major_axis": "1.775432009718926",
        "inclination": "18.10033949960127",
        "ascending_node_longitude": "306.578905088965",
        "orbital_period": "864.0810788364605",
        "perihelion_distance": ".4749868800269736",
        "perihelion_argument": "49.89099056258191",
        "aphelion_distance": "3.075877139410878",
        "perihelion_time": "2458815.853137497442",
        "mean_anomaly": "24.43389980179949",
        "mean_motion": ".4166275698164374",
        "equinox": "J2000",
        "orbit_class": {
            "orbit_class_type": "APO",
            "orbit_class_description": "Near-Earth asteroid orbits which cross the Earth’s orbit similar to that of 1862 Apollo",
            "orbit_class_range": "a (semi-major axis) > 1.0 AU; q (perihelion) < 1.017 AU"
        }
    },
    "is_sentry_object": false
}